[Satellite]
VERSION=1.1
NAME=NO-104
NICKNAME=NO-104
TLE1=1 44354U 19036R   20158.10459007  .00005954  00000-0  83740-4 0  9990
TLE2=2 44354  28.5311  95.1185 0364715 189.8119 169.5190 15.03370859 52104
STATUS=0
